TDRS 3                  
1 19548U 88091B   26168.81590098 -.00000309  00000+0  00000+0 0  9997
2 19548  12.6012 341.0008 0038412 356.1595 173.8098  1.00272926125394
FLTSATCOM 8 (USA 46)    
1 20253U 89077A   26168.92166843 -.00000377  00000+0  00000+0 0  9991
2 20253  12.4214 351.1599 0004355  56.1729 316.3415  1.00277113260573
SKYNET 4C               
1 20776U 90079A   26162.20198485  .00000132  00000+0  00000+0 0  9995
2 20776  13.3424 349.8525 0002400  96.2313 279.5534  1.00274127130831
TDRS 5                  
1 21639U 91054B   26168.72099686  .00000073  00000+0  00000+0 0  9998
2 21639  14.0711 353.7773 0006378 275.3388  88.7334  1.00274502127725
TDRS 6                  
1 22314U 93003B   26168.35461314 -.00000306  00000+0  00000+0 0  9995
2 22314  14.1828 357.0581 0008028 178.0729 172.3329  1.00271326122407
UFO 2 (USA 95)          
1 22787U 93056A   26167.95715442  .00000116  00000+0  00000+0 0  9994
2 22787  11.8946   3.5568 0005780   8.4779 266.4451  1.00276623118543
USA 99 (MILSTAR-1 1)    
1 22988U 94009A   26168.82583741 -.00000205  00000+0  00000+0 0  9998
2 22988  17.6282  27.7005 0000980 224.0272 313.0792  0.98723627 32952
UFO 4 (USA 108)         
1 23467U 95003A   26168.78834086 -.00000032  00000+0  00000+0 0  9990
2 23467   9.7017  13.2285 0003068  68.9091 279.8771  1.00272692114959
TDRS 7                  
1 23613U 95035B   26168.80573022 -.00000246  00000+0  00000+0 0  9998
2 23613  13.3769 348.1862 0011005  79.1258 217.6275  1.00264311113257
USA 115 (MILSTAR-1 2)   
1 23712U 95060A   26168.50322230 -.00000203  00000+0  00000+0 0  9999
2 23712  14.0731   3.7485 0001490 140.0915 208.9611  1.00364389 32886
INMARSAT 3-F1           
1 23839U 96020A   26168.41883830 -.00000127  00000+0  00000+0 0  9999
2 23839  10.6014  46.6330 0003773  51.9072 222.5057  0.99978609110254
INMARSAT 3-F2           
1 24307U 96053A   26168.51850487 -.00000271  00000+0  00000+0 0  9999
2 24307   9.8576  53.9337 0006688  30.4217 157.1358  1.00003059108926
INMARSAT 3-F3           
1 24674U 96070A   26168.83372411  .00000126  00000+0  00000+0 0  9994
2 24674  10.3194  49.6476 0003343  26.3508 172.0689  0.99982712107914
AMC-3                   
1 24936U 97050A   26168.47683765  .00000058  00000+0  00000+0 0  9995
2 24936   8.1658  63.9825 0004121  27.3237 214.4691  0.99061861 52430
USA 134                 
1 25019U 97065A   26168.28210361 -.00000073  00000+0  00000+0 0  9999
2 25019  12.7846  21.7240 0003372 336.7219 256.3617  1.00268927 32953
INMARSAT 3-F5           
1 25153U 98006B   26168.12897061 -.00000300  00000+0  00000+0 0  9998
2 25153   9.6937  53.2613 0004460  28.8350 175.6920  1.00267650103890
ABS-6                   
1 25924U 99053A   26168.85701076 -.00000125  00000+0  00000+0 0  9992
2 25924   0.0201 297.0168 0003611 153.4823 283.1522  1.00271173 97840
UFO 10 (USA 146)        
1 25967U 99063A   26167.87405916 -.00000197  00000+0  00000+0 0  9994
2 25967   9.8493  27.2133 0001836  41.8612 127.7943  1.00271309 97341
ASIASTAR                
1 26107U 00016A   26168.70975463 -.00000343  00000+0  00000+0 0  9996
2 26107   9.1315  58.1496 0004501  28.5971 179.7118  1.00268496 95927
USA 149 (DSP 20)        
1 26356U 00024A   26168.79267421  .00000083  00000+0  00000+0 0  9998
2 26356  13.1713  11.8506 0001985 310.7282  63.4451  1.00275036 32920
TDRS 8                  
1 26388U 00034A   26168.62837509 -.00000204  00000+0  00000+0 0  9992
2 26388  12.6842  31.3184 0004523  19.1016 166.2701  1.00267105 95182
NSS-11                  
1 26554U 00059A   26168.86021744  .00000018  00000+0  00000+0 0  9998
2 26554   2.1292  81.3808 0002810 354.3726 316.0247  1.00271421 41296
USA 153                 
1 26575U 00065A   26168.66473252 -.00000336  00000+0  00000+0 0  9995
2 26575  11.6255  35.4187 0002995  47.2525 197.0334  1.00269424 32937
AMC-6                   
1 26580U 00067A   26168.46882882  .00000083  00000+0  00000+0 0  9992
2 26580   0.1538  83.1105 0003485  15.4364 200.9328  1.00273003 93890
USA 157 (MILSTAR-2 2)   
1 26715U 01009A   26168.72455022  .00000099  00000+0  00000+0 0  9997
2 26715  11.5437  19.7640 0039270 177.6306 179.3674  1.00274993 32942
INTELSAT 902 (IS-902)   
1 26900U 01039A   26168.53041906 -.00000291  00000+0  00000+0 0  9992
2 26900   6.1182  71.7793 0004328  11.2555 323.5996  1.00271937 90698
USA 164 (MILSTAR-2 3)   
1 27168U 02001A   26168.80294760  .00000088  00000+0  00000+0 0  9990
2 27168  11.1806  21.9069 0099044   8.4150 183.8658  1.00277966 32961
INTELSAT 904 (IS-904)   
1 27380U 02007A   26168.46286184 -.00000234  00000+0  00000+0 0  9999
2 27380   6.9214  69.1812 0006495   5.3617 326.3067  1.00270446 51767
DIRECTV 5 (TEMPO 1)     
1 27426U 02023A   26168.87503751 -.00000065  00000+0  00000+0 0  9997
2 27426   4.8803  75.3025 0003354  25.8416   9.8887  1.00271773 88137
INTELSAT 905 (IS-905)   
1 27438U 02027A   26168.79813424  .00000085  00000+0  00000+0 0  9997
2 27438   6.7559  69.7936 0003827  21.5992 324.7612  1.00271612 51366
GALAXY 3C (G-3C)        
1 27445U 02030A   26168.59285479 -.00000159  00000+0  00000+0 0  9993
2 27445   3.7335  77.9723 0001580  30.9364 275.5108  1.00270957 46491
